NORAD_CAT_ID,OBJECT_NAME,OBJECT_TYPE,EPOCH,MEAN_MOTION,ECCENTRICITY,INCLINATION,RA_OF_ASC_NODE,ARG_OF_PERICENTER,MEAN_ANOMALY,BSTAR,MEAN_MOTION_DOT,MEAN_MOTION_DDOT,TLE_LINE0,TLE_LINE1,TLE_LINE2,SEMIMAJOR_AXIS,PERIOD,APOGEE,PERIGEE,DECAYED
52276.0,STARLINK-3778,PAYLOAD,2023-11-06 08:57:26,15.08872383,0.0001777,53.2192,344.2995,99.0785,261.0408,0.00055697,8.595e-05,0.0,0 STARLINK-3778,1 52276U 22041R   23310.37322514  .00008595  00000-0  55697-3 0  9999,2 52276  53.2192 344.2995 0001777  99.0785 261.0408 15.08872383 86619,6917.781,95.436,540.876,538.417,0.0
52276.0,STARLINK-3778,PAYLOAD,2023-11-07 08:48:17,15.0879912,0.00013,53.2167,339.8391,87.2677,272.8464,-0.00022529,-3.867e-05,0.0,0 STARLINK-3778,1 52276U 22041R   23311.36687008 -.00003867  00000-0 -22529-3 0  9998,2 52276  53.2167 339.8391 0001300  87.2677 272.8464 15.08799120 86767,6918.005,95.44,540.77,538.971,0.0
52276.0,STARLINK-3778,PAYLOAD,2023-11-07 13:34:26,15.08819385,0.0001559,53.2174,338.9478,77.1262,282.9905,0.00016802,2.386e-05,0.0,0 STARLINK-3778,1 52276U 22041R   23311.56558656  .00002386  00000-0  16802-3 0  9996,2 52276  53.2174 338.9478 0001559  77.1262 282.9905 15.08819385 85571,6917.943,95.439,540.887,538.73,0.0
52276.0,STARLINK-3778,PAYLOAD,2023-11-08 02:17:31,15.08840222,0.0001455,53.2161,336.5666,85.5688,274.547,0.00075855,0.00011805,0.0,0 STARLINK-3778,1 52276U 22041R   23312.09550707  .00011805  00000-0  75855-3 0  9993,2 52276  53.2161 336.5666 0001455  85.5688 274.5470 15.08840222 86872,6917.88,95.438,540.751,538.738,0.0
52276.0,STARLINK-3778,PAYLOAD,2023-11-08 08:39:03,15.08850905,0.0001644,53.2176,335.3784,101.6468,258.4709,0.0010244,0.00016058,0.0,0 STARLINK-3778,1 52276U 22041R   23312.36045724  .00016058  00000-0  10244-2 0  9996,2 52276  53.2176 335.3784 0001644 101.6468 258.4709 15.08850905 86912,6917.847,95.437,540.849,538.575,0.0
52276.0,STARLINK-3778,PAYLOAD,2023-11-08 18:11:22,15.08841863,0.00011,53.2174,333.5978,188.7178,171.3795,0.0004479,6.848e-05,0.0,0 STARLINK-3778,1 52276U 22041R   23312.75789809  .00006848  00000-0  44790-3 0  9998,2 52276  53.2174 333.5978 0001100 188.7178 171.3795 15.08841863 86973,6917.875,95.437,540.501,538.979,0.0
52276.0,STARLINK-3778,PAYLOAD,2023-11-09 10:05:13,15.08859362,0.0001731,53.2177,330.6254,112.5383,247.5792,0.00035698,5.401e-05,0.0,0 STARLINK-3778,1 52276U 22041R   23313.42029284  .00005401  00000-0  35698-3 0  9998,2 52276  53.2177 330.6254 0001731 112.5383 247.5792 15.08859362 87072,6917.821,95.436,540.884,538.489,0.0
52276.0,STARLINK-3778,PAYLOAD,2023-11-09 18:02:08,15.08852683,0.0001578,53.2168,329.137,103.3951,256.7217,5.4554e-05,5.81e-06,0.0,0 STARLINK-3778,1 52276U 22041R   23313.75149073  .00000581  00000-0  54554-4 0  9990,2 52276  53.2168 329.1370 0001578 103.3951 256.7217 15.08852683 87121,6917.842,95.437,540.798,538.615,0.0
52276.0,STARLINK-3778,PAYLOAD,2023-11-10 11:31:23,15.08850342,0.0001711,53.2177,325.8612,96.8025,263.3162,-3.9611e-05,-9.19e-06,0.0,0 STARLINK-3778,1 52276U 22041R   23314.48012773 -.00000919  00000-0 -39611-4 0  9991,2 52276  53.2177 325.8612 0001711  96.8025 263.3162 15.08850342 86010,6917.849,95.437,540.897,538.53,0.0
52276.0,STARLINK-3778,PAYLOAD,2023-11-11 09:46:47,15.08846914,0.0001824,53.2181,321.6969,97.8267,262.2932,0.00013584,1.875e-05,0.0,0 STARLINK-3778,1 52276U 22041R   23315.40748917  .00001875  00000-0  13584-3 0  9990,2 52276  53.2181 321.6969 0001824  97.8267 262.2932 15.08846914 87371,6917.859,95.437,540.986,538.462,0.0
52276.0,STARLINK-3778,PAYLOAD,2023-11-11 17:43:43,15.0883773,0.0001717,53.2172,320.2096,95.718,264.4008,-7.3845e-06,-4.06e-06,0.0,0 STARLINK-3778,1 52276U 22041R   23315.73869283 -.00000406  00000-0 -73845-5 0  9995,2 52276  53.2172 320.2096 0001717  95.7180 264.4008 15.08837730 87429,6917.887,95.438,540.94,538.565,0.0
52276.0,STARLINK-3778,PAYLOAD,2023-11-12 09:37:34,15.08840379,0.0001736,53.2176,317.235,94.446,265.673,0.00010381,1.364e-05,0.0,0 STARLINK-3778,1 52276U 22041R   23316.40109490  .00001364  00000-0  10381-3 0  9993,2 52276  53.2176 317.2350 0001736  94.4460 265.6730 15.08840379 86304,6917.879,95.438,540.945,538.543,0.0
52276.0,STARLINK-3778,PAYLOAD,2023-11-12 17:34:30,15.08841282,0.0001698,53.2178,315.7491,97.3521,262.7664,0.00014409,2.006e-05,0.0,0 STARLINK-3778,1 52276U 22041R   23316.73229559  .00002006  00000-0  14409-3 0  9997,2 52276  53.2178 315.7491 0001698  97.3521 262.7664 15.08841282 86355,6917.876,95.437,540.916,538.567,0.0
52276.0,STARLINK-3778,PAYLOAD,2023-11-13 09:28:21,15.08850602,0.0001596,53.2176,312.7745,103.6205,256.4965,0.00022044,3.223e-05,0.0,0 STARLINK-3778,1 52276U 22041R   23317.39469092  .00003223  00000-0  22044-3 0  9994,2 52276  53.2176 312.7745 0001596 103.6205 256.4965 15.08850602 87675,6917.848,95.437,540.817,538.609,0.0
52276.0,STARLINK-3778,PAYLOAD,2023-11-14 02:57:35,15.0884607,0.0001748,53.2189,309.5033,98.2158,261.9032,0.00019648,2.841e-05,0.0,0 STARLINK-3778,1 52276U 22041R   23318.12333295  .00002841  00000-0  19648-3 0  9992,2 52276  53.2189 309.5033 0001748  98.2158 261.9032 15.08846070 87780,6917.862,95.437,540.936,538.518,0.0
52276.0,STARLINK-3778,PAYLOAD,2023-11-14 06:08:22,15.08848645,0.0001616,53.2173,308.9075,104.6179,255.4993,0.00016574,2.351e-05,0.0,0 STARLINK-3778,1 52276U 22041R   23318.25581044  .00002351  00000-0  16574-3 0  9994,2 52276  53.2173 308.9075 0001616 104.6179 255.4993 15.08848645 86582,6917.854,95.437,540.837,538.601,0.0
52276.0,STARLINK-3778,PAYLOAD,2023-11-15 02:48:23,15.0884091,0.0001718,53.2179,305.0442,104.6016,255.5167,6.1164e-05,6.86e-06,0.0,0 STARLINK-3778,1 52276U 22041R   23319.11693466  .00000686  00000-0  61164-4 0  9997,2 52276  53.2179 305.0442 0001718 104.6016 255.5167 15.08840910 87938,6917.878,95.437,540.931,538.554,0.0
52276.0,STARLINK-3778,PAYLOAD,2023-11-15 09:09:55,15.08839358,0.0001792,53.2179,303.8542,105.6146,254.5045,-5.7189e-06,-3.79e-06,0.0,0 STARLINK-3778,1 52276U 22041R   23319.38189489 -.00000379  00000-0 -57189-5 0  9995,2 52276  53.2179 303.8542 0001792 105.6146 254.5045 15.08839358 86759,6917.882,95.438,540.987,538.508,0.0
52276.0,STARLINK-3778,PAYLOAD,2023-11-16 02:39:10,15.08836387,0.0001792,53.2184,300.5836,108.3914,251.7273,5.3924e-05,5.7e-06,0.0,0 STARLINK-3778,1 52276U 22041R   23320.11053878  .00000570  00000-0  53924-4 0  9993,2 52276  53.2184 300.5836 0001792 108.3914 251.7273 15.08836387 88087,6917.891,95.438,540.996,538.517,0.0
52276.0,STARLINK-3778,PAYLOAD,2023-11-16 09:00:43,15.08837583,0.0001795,53.2185,299.3939,108.0826,252.0362,5.4679e-05,5.82e-06,0.0,0 STARLINK-3778,1 52276U 22041R   23320.37549802  .00000582  00000-0  54679-4 0  9999,2 52276  53.2185 299.3939 0001795 108.0826 252.0362 15.08837583 86900,6917.888,95.438,540.995,538.511,0.0
52276.0,STARLINK-3778,PAYLOAD,2023-11-17 04:05:21,15.08833702,0.0001503,53.2176,295.8272,91.3131,268.8033,6.916e-05,8.13e-06,0.0,0 STARLINK-3778,1 52276U 22041R   23321.17038321  .00000813  00000-0  69160-4 0  9995,2 52276  53.2176 295.8272 0001503  91.3131 268.8033 15.08833702 88249,6917.9,95.438,540.804,538.725,0.0
52276.0,STARLINK-3778,PAYLOAD,2023-11-17 07:16:07,15.0883691,0.0001458,53.2175,295.2324,89.8924,270.2236,8.951e-05,1.137e-05,0.0,0 STARLINK-3778,1 52276U 22041R   23321.30286123  .00001137  00000-0  89510-4 0  9996,2 52276  53.2175 295.2324 0001458  89.8924 270.2236 15.08836910 87044,6917.89,95.438,540.763,538.746,0.0
52276.0,STARLINK-3778,PAYLOAD,2023-11-17 15:13:02,15.08837254,0.000146,53.2176,293.746,92.0269,268.089,5.0952e-05,5.23e-06,0.0,0 STARLINK-3778,1 52276U 22041R   23321.63406249  .00000523  00000-0  50952-4 0  9991,2 52276  53.2176 293.7460 0001460  92.0269 268.0890 15.08837254 87098,6917.889,95.438,540.764,538.744,0.0
52276.0,STARLINK-3778,PAYLOAD,2023-11-18 07:06:53,15.08843915,0.0001472,53.2174,290.772,94.5033,265.6127,0.00011552,1.551e-05,0.0,0 STARLINK-3778,1 52276U 22041R   23322.29645822  .00001551  00000-0  11552-3 0  9990,2 52276  53.2174 290.7720 0001472  94.5033 265.6127 15.08843915 88415,6917.868,95.437,540.752,538.715,0.0
52276.0,STARLINK-3778,PAYLOAD,2023-11-18 15:03:49,15.08844622,0.0001454,53.2174,289.2857,87.7668,272.3491,6.2366e-05,7.05e-06,0.0,0 STARLINK-3778,1 52276U 22041R   23322.62765878  .00000705  00000-0  62366-4 0  9991,2 52276  53.2174 289.2857 0001454  87.7668 272.3491 15.08844622 87242,6917.866,95.437,540.737,538.725,0.0
52276.0,STARLINK-3778,PAYLOAD,2023-11-19 03:46:55,15.08839086,0.000154,53.2177,286.9072,85.9381,274.1787,5.2959e-05,5.55e-06,0.0,0 STARLINK-3778,1 52276U 22041R   23323.15758307  .00000555  00000-0  52959-4 0  9999,2 52276  53.2177 286.9072 0001540  85.9381 274.1787 15.08839086 88546,6917.883,95.438,540.814,538.683,0.0
52276.0,STARLINK-3778,PAYLOAD,2023-11-19 05:22:18,15.0884081,0.0001537,53.2177,286.6098,85.8297,274.2871,6.7971e-05,7.94e-06,0.0,0 STARLINK-3778,1 52276U 22041R   23323.22382225  .00000794  00000-0  67971-4 0  9994,2 52276  53.2177 286.6098 0001537  85.8297 274.2871 15.08840810 87330,6917.878,95.438,540.806,538.68,0.0
52276.0,STARLINK-3778,PAYLOAD,2023-11-19 14:54:36,15.08843709,0.0001586,53.2182,284.8262,88.4079,271.7095,9.9277e-05,1.292e-05,0.0,0 STARLINK-3778,1 52276U 22041R   23323.62125924  .00001292  00000-0  99277-4 0  9997,2 52276  53.2182 284.8262 0001586  88.4079 271.7095 15.08843709 87396,6917.869,95.437,540.831,538.637,0.0
52276.0,STARLINK-3778,PAYLOAD,2023-11-20 03:37:41,15.08849873,0.0001472,53.217,282.4488,89.4536,270.6625,7.4778e-05,9.03e-06,0.0,0 STARLINK-3778,1 52276U 22041R   23324.15117385  .00000903  00000-0  74778-4 0  9995,2 52276  53.2170 282.4488 0001472  89.4536 270.6625 15.08849873 88699,6917.85,95.437,540.734,538.697,0.0
52276.0,STARLINK-3778,PAYLOAD,2023-11-20 06:48:27,15.08853693,0.0001467,53.2171,281.8527,93.4488,266.6672,9.8198e-05,1.276e-05,0.0,0 STARLINK-3778,1 52276U 22041R   23324.28365037  .00001276  00000-0  98198-4 0  9994,2 52276  53.2171 281.8527 0001467  93.4488 266.6672 15.08853693 87491,6917.839,95.437,540.718,538.689,0.0
